STARLINK-4626           
1 53685U 22105AP  26068.65818019 -.00000122  00000+0 -49788-5 0  9994
2 53685  97.6025 310.1773 0002273  61.7447 298.4007 15.01262010193239
LEMUR-2-ALISIA          
1 62706U 25009DB  26068.73770453  .00009177  00000+0  72005-3 0  9995
2 62706  97.7037 151.6973 0006582 159.9869 200.1615 15.01147598 85230
